CCSDS_OMM_VERS = 2.0
CREATION_DATE  = 
ORIGINATOR     = 

OBJECT_NAME    = COSMOS 2550
OBJECT_ID      = 2021-056A
CENTER_NAME    = EARTH
REF_FRAME      = TEME
TIME_SYSTEM    = UTC
MEAN_ELEMENT_THEORY = SGP/SGP4

EPOCH          = 2025-11-13T18:34:22.861344
MEAN_MOTION    = 15.33866991
ECCENTRICITY   = .0008311
INCLINATION    = 67.1444
RA_OF_ASC_NODE = 31.6034
ARG_OF_PERICENTER = 269.8361
MEAN_ANOMALY   = 90.1841

EPHEMERIS_TYPE = 0
CLASSIFICATION_TYPE = U
NORAD_CAT_ID   = 48865
ELEMENT_SET_NO = 999
REV_AT_EPOCH   = 24568
BSTAR          = .21914E-3
MEAN_MOTION_DOT = .7033E-4
MEAN_MOTION_DDOT = 0

CCSDS_OMM_VERS = 2.0
CREATION_DATE  = 
ORIGINATOR     = 

OBJECT_NAME    = CZ-2C R/B
OBJECT_ID      = 2022-058K
CENTER_NAME    = EARTH
REF_FRAME      = TEME
TIME_SYSTEM    = UTC
MEAN_ELEMENT_THEORY = SGP/SGP4

EPOCH          = 2025-11-13T08:41:17.314080
MEAN_MOTION    = 15.46504803
ECCENTRICITY   = .0048784
INCLINATION    = 50.1897
RA_OF_ASC_NODE = 193.1411
ARG_OF_PERICENTER = 76.5712
MEAN_ANOMALY   = 284.0686

EPHEMERIS_TYPE = 0
CLASSIFICATION_TYPE = U
NORAD_CAT_ID   = 52794
ELEMENT_SET_NO = 999
REV_AT_EPOCH   = 19208
BSTAR          = .93146E-3
MEAN_MOTION_DOT = .49171E-3
MEAN_MOTION_DDOT = 0

CCSDS_OMM_VERS = 2.0
CREATION_DATE  = 
ORIGINATOR     = 

OBJECT_NAME    = GSLV R/B
OBJECT_ID      = 2022-138AN
CENTER_NAME    = EARTH
REF_FRAME      = TEME
TIME_SYSTEM    = UTC
MEAN_ELEMENT_THEORY = SGP/SGP4

EPOCH          = 2025-11-13T05:22:16.142016
MEAN_MOTION    = 14.95905114
ECCENTRICITY   = .002008
INCLINATION    = 87.3846
RA_OF_ASC_NODE = 205.3525
ARG_OF_PERICENTER = 209.0604
MEAN_ANOMALY   = 150.9511

EPHEMERIS_TYPE = 0
CLASSIFICATION_TYPE = U
NORAD_CAT_ID   = 54149
ELEMENT_SET_NO = 999
REV_AT_EPOCH   = 16651
BSTAR          = .74771E-3
MEAN_MOTION_DOT = .8425E-4
MEAN_MOTION_DDOT = 0

CCSDS_OMM_VERS = 2.0
CREATION_DATE  = 
ORIGINATOR     = 

OBJECT_NAME    = XRISM
OBJECT_ID      = 2023-137A
CENTER_NAME    = EARTH
REF_FRAME      = TEME
TIME_SYSTEM    = UTC
MEAN_ELEMENT_THEORY = SGP/SGP4

EPOCH          = 2025-11-13T06:56:02.262048
MEAN_MOTION    = 15.09905789
ECCENTRICITY   = .0008067
INCLINATION    = 31.0031
RA_OF_ASC_NODE = 315.6331
ARG_OF_PERICENTER = 305.8202
MEAN_ANOMALY   = 54.1686

EPHEMERIS_TYPE = 0
CLASSIFICATION_TYPE = U
NORAD_CAT_ID   = 57800
ELEMENT_SET_NO = 999
REV_AT_EPOCH   = 12017
BSTAR          = .86132E-3
MEAN_MOTION_DOT = .14424E-3
MEAN_MOTION_DDOT = 0

CCSDS_OMM_VERS = 2.0
CREATION_DATE  = 
ORIGINATOR     = 

OBJECT_NAME    = ACS3
OBJECT_ID      = 2024-077B
CENTER_NAME    = EARTH
REF_FRAME      = TEME
TIME_SYSTEM    = UTC
MEAN_ELEMENT_THEORY = SGP/SGP4

EPOCH          = 2025-11-13T11:39:00.313920
MEAN_MOTION    = 13.83614992
ECCENTRICITY   = .0056798
INCLINATION    = 97.3104
RA_OF_ASC_NODE = 279.5884
ARG_OF_PERICENTER = 25.0838
MEAN_ANOMALY   = 335.3063

EPHEMERIS_TYPE = 0
CLASSIFICATION_TYPE = U
NORAD_CAT_ID   = 59588
ELEMENT_SET_NO = 999
REV_AT_EPOCH   = 7809
BSTAR          = .25994E-1
MEAN_MOTION_DOT = .29134E-3
MEAN_MOTION_DDOT = 0

